HYLAS 4                 
1 43272U 18033B   26063.15037433 -.00000247  00000+0  00000+0 0  9998
2 43272   0.0215 103.9276 0001265 263.4814 175.0599  1.00268990 29011
IRNSS-1I                
1 43286U 18035A   26063.09664074  .00000085  00000+0  00000+0 0  9994
2 43286  28.9289  75.8190 0019068 190.3573 345.5673  1.00277479 29028
USA 283                 
1 43339U 18036A   26062.82694310 -.00000331  00000+0  00000+0 0  9995
2 43339   0.0172 128.2274 0000778 251.2663 213.8636  1.00271212 24233
COSMOS 2526             
1 43432U 18037A   26063.03970049 -.00000358  00000+0  00000+0 0  9999
2 43432   0.0252 109.8514 0000314 225.8295 328.4578  1.00267773 28905
APSTAR-6C               
1 43450U 18041A   26062.96960334 -.00000331  00000+0  00000+0 0  9992
2 43450   0.0524 345.0872 0003154 355.6633 304.0292  1.00272755 28753
BANGABANDHUSAT-1        
1 43463U 18044A   26062.96665664 -.00000376  00000+0  00000+0 0  9996
2 43463   0.0109 175.2138 0002622 177.6452 275.9370  1.00270285 28652
SES-12                  
1 43488U 18049A   26063.16641990  .00000000  00000+0  00000+0 0  9990
2 43488   0.0188 120.2670 0002089 184.2983  12.2805  1.00268956 28362
FENGYUN 2H              
1 43491U 18050A   26063.10132078 -.00000139  00000+0  00000+0 0  9996
2 43491   2.7598  80.3634 0001718 173.9540  23.0784  1.00272888 28385
BEIDOU-2 IGSO-7         
1 43539U 18057A   26056.73984515 -.00000161  00000+0  00000+0 0  9993
2 43539  55.1859 164.0342 0099962 236.5988 133.5173  1.00284731 28015
TELSTAR 19V             
1 43562U 18059A   26063.14448096 -.00000292  00000+0  00000+0 0  9998
2 43562   0.0201 169.6505 0000593 253.9650  87.2796  1.00272020 28096
TELKOM 4 (MERAH PUTIH)  
1 43587U 18064A   26063.03580046 -.00000357  00000+0  00000+0 0  9993
2 43587   0.0071 140.8978 0001669 238.0340 263.7299  1.00270746 27820
TELSTAR 18V             
1 43611U 18069A   26062.97038334 -.00000307  00000+0  00000+0 0  9991
2 43611   0.0174 228.2832 0002083 114.1403 306.6322  1.00271391 27570
AZERSPACE 2 (IS-38)     
1 43632U 18074A   26063.09464740  .00000000  00000+0  00000+0 0  9997
2 43632   0.0253 148.0087 0001459 207.5851 245.4486  1.00270354 27391
HORIZONS-3E             
1 43633U 18074B   26063.11917419 -.00000044  00000+0  00000+0 0  9996
2 43633   0.0145 327.1223 0000589   5.1214  41.4976  1.00271713 27288
AEHF-4 (USA 288)        
1 43651U 18079A   26063.15600580 -.00000287  00000+0  00000+0 0  9992
2 43651   1.4229 354.6593 0064087 359.1150 156.7713  1.00273314 27249
BEIDOU-3 G1             
1 43683U 18085A   26063.20893297 -.00000290  00000+0  00000+0 0  9993
2 43683   2.8102 100.3911 0001342  24.9069 251.9134  1.00268563 27009
GSAT-29                 
1 43698U 18089A   26063.09655409  .00000073  00000+0  00000+0 0  9999
2 43698   0.0587 273.7699 0001800  53.1441 284.7046  1.00271671 26736
